HST                     
1 20580U 90037B   26193.50194392  .00003754  00000+0  11416-3 0  9992
2 20580  28.4726 267.5224 0002269  77.7190 282.3660 15.31043109792455
POLAR                   
1 23802U 96013A   26193.45479677  .00000231  00000+0  00000+0 0  9998
2 23802  79.8873 226.7522 6495795 208.2089  91.5098  1.29846074145181
SWAS                    
1 25560U 98071A   26194.05503219  .00001656  00000+0  10888-3 0  9995
2 25560  69.8938 160.8036 0008083 232.8629 127.1797 15.09739407501171
CXO                     
1 25867U 99040B   26195.82327180  .00000664  00000+0  00000+0 0  9998
2 25867  56.5906 115.8556 7794608 310.0752   0.4008  0.37803281 17429
XMM-NEWTON              
1 25989U 99066A   26193.28213418  .00000088  00000+0  00000+0 0  9997
2 25989  64.3559 282.6652 4668218  64.4827   0.1151  0.50124873 23131
TERRA                   
1 25994U 99068A   26194.18371551  .00000203  00000+0  50268-4 0  9993
2 25994  97.9443 242.6974 0003328 126.8576 326.3419 14.61122780413404
CLUSTER II-FM7 (SAMBA)  
1 26410U 00041A   26192.68021872  .00012833  00000+0  00000+0 0  9997
2 26410 149.8437  55.3938 9082311 272.8334 359.6328  0.44896530 20420
CLUSTER II-FM8 (TANGO)  
1 26464U 00045B   26190.95011118  .00011224  00000+0  00000+0 0  9993
2 26464 150.0571  56.2797 9085123 273.5523   2.2662  0.44421537 20419
ODIN                    
1 26702U 01007A   26193.66099177  .00297616  00000+0  10674-2 0  9991
2 26702  97.3743 236.4394 0004667 145.8846 214.2726 15.88033839393425
TIMED                   
1 26998U 01055B   26193.96687035  .00000610  00000+0  58905-4 0  9997
2 26998  74.0664 183.1090 0002148 303.2465  56.8514 14.95341987334676
CORIOLIS                
1 27640U 03001A   26193.91687179  .00000058  00000+0  47748-4 0  9998
2 27640  98.7134 200.4092 0014815 135.2927 224.9446 14.19951423217873
SORCE                   
1 27651U 03004A   26194.17261998  .00001531  00000+0  11990-3 0  9995
2 27651  39.9908 113.4042 0018576 240.8928 119.0006 15.03836025275819
MOST                    
1 27843U 03031D   26193.97646441  .00000023  00000+0  30752-4 0  9998
2 27843  98.7052 201.3428 0009942 171.3583 188.7767 14.21327399194378
SCISAT 1                
1 27858U 03036A   26193.88665215  .00000318  00000+0  45300-4 0  9991
2 27858  73.9302 120.2816 0007487 188.8697 171.2349 14.81477496235254
SWIFT                   
1 28485U 04047A   26194.11647833  .00048724  00000+0  36183-3 0  9995
2 28485  20.5531 344.5042 0001842 359.4945   0.5499 15.70998544190943
HINODE (SOLAR-B)        
1 29479U 06041A   26194.00707365  .00000341  00000+0  66879-4 0  9999
2 29479  98.0549 209.7790 0016869 201.5609 158.4888 14.68656738 58666
SHIJIAN-6 02A (SJ-6 02A)
1 29505U 06046A   26194.14477950  .00004134  00000+0  21129-3 0  9995
2 29505  97.6350 235.4087 0004412  68.6796 291.4907 15.17231981 76200
SHIJIAN-6 02B (SJ-6 02B)
1 29506U 06046B   26194.20483148  .00000446  00000+0  39218-4 0  9990
2 29506  97.7153 223.1025 0013618 343.1515  16.9255 15.01435129 74642
FGRST (GLAST)           
1 33053U 08029A   26193.89505711  .00002204  00000+0  74760-4 0  9995
2 33053  25.5828  25.9616 0007746 270.8522  89.1128 15.24068637999766
SDO                     
1 36395U 10005A   26192.24778596 -.00000102  00000+0  00000+0 0  9992
2 36395  34.6998  85.9778 0002020  56.2745 133.8056  1.00277272 60307
CRYOSAT 2               
1 36508U 10013A   26194.20225728  .00000135  00000+0  32902-4 0  9995
2 36508  92.0358 283.6261 0002360  98.4080 261.7395 14.51897949861857
X-SAT                   
1 37389U 11015C   26194.20144557  .00000157  00000+0  84367-4 0  9992
2 37389  98.3520 169.9876 0012692 267.3983  92.5744 14.25213881791387
GCOM-W1 (SHIZUKU)       
1 38337U 12025A   26193.85296234  .00000224  00000+0  59846-4 0  9997
2 38337  98.2024 134.0207 0001337  76.7105 348.0096 14.57089068752774
NUSTAR                  
1 38358U 12031A   26194.25003471  .00001402  00000+0  33578-4 0  9994
2 38358   6.0240 198.6029 0007471 142.5954  69.7533 15.09034489  1305
NEOSSAT                 
1 39089U 13009D   26193.99346258  .00000068  00000+0  38154-4 0  9997
2 39089  98.4188  13.4139 0011312 163.5412 196.6144 14.35835154700445
BRITE-AUSTRIA           
1 39091U 13009F   26193.97923961  .00000089  00000+0  44937-4 0  9999
2 39091  98.4006  12.7781 0010641 156.9749 203.1916 14.36551984700757
IRIS                    
1 39197U 13033A   26193.55206302  .00000532  00000+0  67113-4 0  9994
2 39197  97.9320  32.7491 0023181 234.1182 125.7881 14.85933684704142
HISAKI (SPRINT-A)       
1 39253U 13049A   26193.97917039  .00000078  00000+0  14580-4 0  9991
2 39253  29.7206  88.8790 0136945 225.9387 132.9837 13.55546585634928
CASSIOPE                
1 39265U 13055A   26194.12149843  .00023006 -52902-6  24670-3 0  9991
2 39265  80.9124  35.1684 0283348 334.9438  23.8257 15.27330715671623
STSAT-3                 
1 39422U 13066G   26194.14674263  .00001346  00000+0  10481-3 0  9991
2 39422  97.6187 163.6161 0008950 313.9578  46.0908 15.02879205688101
SWARM B                 
1 39451U 13067A   26194.18835338  .00002091  00000+0  73663-4 0  9990
2 39451  87.7457 334.4175 0002409  82.6977 277.4546 15.28709305687212
